STARLINK-5527           
1 56497U 23064BB  23148.91667824  .00070054  00000+0  58074-3 0  9999
2 56497  69.9995 194.1339 0003708 266.9955 346.4348 15.69871780  1308
STARLINK-5522           
1 56498U 23064BC  23148.91667824  .00047444  00000+0  39484-3 0  9991
2 56498  69.9992 194.1366 0003445 269.0666 342.5812 15.69878706  1305
STARLINK-5775           
1 56503U 23065A   23148.83037303  .00008699  00000+0  69678-4 0  9991
2 56503  43.0008 356.1063 0001686 261.6792  98.3885 15.71368251  3513
STARLINK-5716           
1 56504U 23065B   23148.83016391  .00007406  00000+0  59846-4 0  9997
2 56504  43.0007 356.1041 0001591 265.1366  94.9320 15.71364465  3519
STARLINK-5763           
1 56505U 23065C   23148.83005591  .00002376  00000+0  21559-4 0  9999
2 56505  43.0009 356.1035 0002013 256.0717 103.9927 15.71364210  3516
STARLINK-5340           
1 56506U 23065D   23148.83026639  .00009413  00000+0  75096-4 0  9990
2 56506  43.0009 356.1051 0001999 262.2430  97.8211 15.71370393  3514
STARLINK-5333           
1 56507U 23065E   23148.82523618  .00029426  00000+0  21521-3 0  9998
2 56507  43.0030 356.0678 0002089 252.5464 107.5176 15.72622586  3517
STARLINK-5335           
1 56508U 23065F   23148.82995184  .00006992  00000+0  56695-4 0  9994
2 56508  43.0007 356.1024 0002051 263.2031  96.8604 15.71366840  3519
STARLINK-5334           
1 56509U 23065G   23148.82953287  .00002083  00000+0  19326-4 0  9990
2 56509  43.0007 356.0996 0001864 270.2527  89.8127 15.71359953  3515
STARLINK-5339           
1 56510U 23065H   23148.82974172  .00006466  00000+0  52687-4 0  9994
2 56510  43.0009 356.1010 0001783 257.8251 102.2417 15.71367814  3519
STARLINK-5351           
1 56511U 23065J   23148.82932151  .00006315  00000+0  51542-4 0  9998
2 56511  43.0006 356.0982 0001875 260.1894  99.8762 15.71366244  3516
STARLINK-5349           
1 56512U 23065K   23148.82963767  .00006394  00000+0  52149-4 0  9997
2 56512  43.0008 356.1005 0001850 271.8540  88.2116 15.71365504  3519
STARLINK-5329           
1 56513U 23065L   23148.82911111  .00012244  00000+0  96608-4 0  9993
2 56513  43.0007 356.0964 0001745 260.3034  99.7637 15.71373346  3514
STARLINK-5343           
1 56514U 23065M   23148.91667824 -.00675548  00000+0 -53931-2 0  9997
2 56514  43.0034 355.3114 0001751 275.8422 324.4711 15.72147398  1306
STARLINK-5348           
1 56515U 23065N   23148.82900623  .00015845  00000+0  12395-3 0  9991
2 56515  43.0005 356.0969 0001907 258.7561 101.3092 15.71372861  3511
STARLINK-5342           
1 56516U 23065P   23148.82921639  .00017538  00000+0  13680-3 0  9991
2 56516  43.0007 356.0976 0001904 253.1588 106.9071 15.71373112  3515
STARLINK-5345           
1 56517U 23065Q   23148.82869083  .00016093  00000+0  12584-3 0  9993
2 56517  43.0004 356.0948 0001936 262.1096  97.9552 15.71371833  3512
STARLINK-5346           
1 56518U 23065R   23148.82890084  .00018101  00000+0  14106-3 0  9993
2 56518  43.0009 356.0954 0002000 259.1853 100.8789 15.71374981  3518
STARLINK-6313           
1 56519U 23065S   23148.82847993  .00010344  00000+0  82174-4 0  9997
2 56519  43.0007 356.0918 0002014 270.7584  89.3053 15.71370780  3510
STARLINK-6344           
1 56520U 23065T   23148.82879591  .00011214  00000+0  88788-4 0  9992
2 56520  43.0008 356.0937 0001766 260.7780  99.2888 15.71371347  3510
STARLINK-6333           
1 56521U 23065U   23148.82827056  .00021061  00000+0  16351-3 0  9999
2 56521  43.0005 356.0913 0001779 261.3250  98.7416 15.71374745  3511
STARLINK-6327           
1 56522U 23065V   23148.82858725  .00019503  00000+0  15172-3 0  9995
2 56522  43.0007 356.0927 0001824 256.7649 103.3015 15.71371073  3519
STARLINK-6328           
1 56523U 23065W   23148.82805981  .00002070  00000+0  19223-4 0  9995
2 56523  43.0005 356.0886 0001653 275.7863  84.2816 15.71364106  3516
STARLINK-6323           
1 56524U 23065X   23148.82837479  .00011887  00000+0  93899-4 0  9990
2 56524  43.0005 356.0909 0001730 268.8824  91.1846 15.71372311  3516
STARLINK-6329           
1 56525U 23065Y   23148.82784821  .00019527  00000+0  15186-3 0  9994
2 56525  43.0005 356.0871 0002013 265.8813  94.1824 15.71377371  3515
STARLINK-6317           
1 56526U 23065Z   23148.82816547  .00005073  00000+0  42092-4 0  9994
2 56526  43.0006 356.0889 0001766 265.6107  94.4559 15.71365354  3510
STARLINK-6335           
1 56527U 23065AA  23148.82774497  .00011308  00000+0  89503-4 0  9998
2 56527  43.0004 356.0863 0001664 261.6629  98.4050 15.71369903  3517
STARLINK-6337           
1 56528U 23065AB  23148.82795426  .00007543  00000+0  60884-4 0  9991
2 56528  43.0006 356.0871 0001844 260.1996  99.8663 15.71367174  3513
STARLINK-6307           
1 56529U 23065AC  23148.82732343  .00007262  00000+0  58742-4 0  9999
2 56529  43.0004 356.0828 0001742 265.1646  94.9023 15.71369394  3510
STARLINK-6318           
1 56530U 23065AD  23148.82763939  .00006843  00000+0  55561-4 0  9996
2 56530  43.0006 356.0851 0001900 267.0688  92.9963 15.71366215  3513
STARLINK-6280           
1 56531U 23065AE  23148.82721773  .00008221  00000+0  66029-4 0  9990
2 56531  43.0004 356.0817 0001952 264.4581  95.6065 15.71371846  3513
STARLINK-6319           
1 56532U 23065AF  23148.82753334  .00010009  00000+0  79631-4 0  9999
2 56532  43.0004 356.0842 0001763 254.7812 105.2861 15.71370166  3517
STARLINK-6310           
1 56533U 23065AG  23148.82711320  .00006030  00000+0  49372-4 0  9997
2 56533  43.0004 356.0818 0001949 267.7688  92.2957 15.71368214  3514
STARLINK-6308           
1 56534U 23065AH  23148.82742994  .00020371  00000+0  15827-3 0  9990
2 56534  43.0005 356.0851 0001876 265.6762  94.3891 15.71376101  3516
STARLINK-6309           
1 56535U 23065AJ  23148.82669252  .00011674  00000+0  92273-4 0  9993
2 56535  43.0004 356.0780 0001921 262.1026  97.9624 15.71372879  3514
STARLINK-6312           
1 56536U 23065AK  23148.82679652  .00019097  00000+0  14860-3 0  9991
2 56536  43.0003 356.0784 0002090 254.6578 105.4059 15.71376947  3511
STARLINK-6311           
1 56537U 23065AL  23148.82658044  .00019442  00000+0  15110-3 0  9997
2 56537  43.0002 356.0775 0001930 262.1214  97.9435 15.71396356  3513
STARLINK-6314           
1 56538U 23065AM  23148.82700897  .00007398  00000+0  59784-4 0  9995
2 56538  43.0005 356.0802 0001805 270.7071  89.3590 15.71366727  3511
STARLINK-6135           
1 56539U 23065AN  23148.82648304  .00000716  00000+0  89068-5 0  9996
2 56539  43.0008 356.0765 0001661 271.3542  88.7136 15.71363072  3512
STARLINK-6136           
1 56540U 23065AP  23148.82690341  .00005987  00000+0  49041-4 0  9997
2 56540  43.0002 356.0801 0001832 264.3268  95.7391 15.71368314  3511
STARLINK-6249           
1 56541U 23065AQ  23148.82616709  .00007248  00000+0  58639-4 0  9999
2 56541  43.0003 356.0742 0001916 267.6565  92.4083 15.71367241  3516
STARLINK-6266           
1 56542U 23065AR  23148.82637685  .00005039  00000+0  41830-4 0  9997
2 56542  43.0003 356.0759 0001895 264.7847  95.2805 15.71368324  3518
STARLINK-6228           
1 56543U 23065AS  23148.82595663  .00007174  00000+0  58073-4 0  9996
2 56543  43.0001 356.0731 0001857 262.9859  97.0798 15.71368032  3515
STARLINK-6226           
1 56544U 23065AT  23148.82627329  .00029805  00000+0  22965-3 0  9997
2 56544  43.0003 356.0744 0001767 265.2943  94.7723 15.71382771  3510
STARLINK-6086           
1 56545U 23065AU  23148.82574535  .00001724  00000+0  16586-4 0  9991
2 56545  43.0008 356.0702 0001536 267.4134  92.6558 15.71366662  3514
STARLINK-6187           
1 56546U 23065AV  23148.82607077  .00011695  00000+0  92455-4 0  9997
2 56546  43.0002 356.0730 0001732 259.7180 100.3492 15.71367384  3519
STARLINK-6291           
1 56547U 23065AW  23148.82553650  .00012102  00000+0  95534-4 0  9990
2 56547  43.0003 356.0698 0001930 269.4567  90.6079 15.71372076  3517
STARLINK-6244           
1 56548U 23065AX  23148.82585295  .00013569  00000+0  10669-3 0  9994
2 56548  43.0005 356.0720 0001627 261.8535  98.2148 15.71368723  3515
STARLINK-6263           
1 56549U 23065AY  23148.82532607  .00008943  00000+0  71533-4 0  9992
2 56549  43.0004 356.0676 0001859 260.3657  99.7001 15.71368613  3513
STARLINK-6255           
1 56550U 23065AZ  23148.82564107  .00001742  00000+0  16723-4 0  9994
2 56550  43.0005 356.0699 0001650 267.4098  92.6581 15.71364221  3513
STARLINK-6199           
1 56551U 23065BA  23148.82511622  .00005779  00000+0  47465-4 0  9990
2 56551  43.0003 356.0666 0001863 266.5704  93.4950 15.71367693  3511
STARLINK-5802           
1 56552U 23065BB  23148.82543149  .00006204  00000+0  50695-4 0  9993
2 56552  43.0002 356.0682 0001999 264.9541  95.1098 15.71367940  3517
STARLINK-6074           
1 56553U 23065BC  23148.82501101  .00002978  00000+0  26139-4 0  9996
2 56553  43.0004 356.0652 0001963 266.8192  93.2451 15.71363418  3519
STARLINK-6295           
1 56554U 23065BD  23148.82522033  .00012898  00000+0  10157-3 0  9998
2 56554  43.0004 356.0665 0001864 262.9189  97.1467 15.71373875  3515
STARLINK-6252           
1 56555U 23065BE  23148.82480014  .00015058  00000+0  11796-3 0  9992
2 56555  43.0001 356.0644 0001828 265.0057  95.0603 15.71376512  3518
STARLINK-5302           
1 56556U 23065BF  23148.82490465  .00000481  00000+0  71108-5 0  9993
2 56556  43.0008 356.0633 0001698 268.5597  91.5076 15.71363981  3517
STARLINK-6265           
1 56557U 23065BG  23148.82469553  .00008707  00000+0  69730-4 0  9994
2 56557  43.0001 356.0628 0001852 271.9475  88.1181 15.71369316  3517
STARLINK-6286           
1 56558U 23065BH  23148.82459048  .00010445  00000+0  82943-4 0  9996
2 56558  43.0002 356.0619 0001816 265.9846  94.0814 15.71371160  3513
FALCON 9 DEB            
1 56559U 23065BJ  23148.91413132  .00271661  35400-4  82586-3 0  9999
2 56559  43.0159 354.1053 0019704  78.0734 282.2349 15.90943887  3125
